[
    {
        "CCSDS_OMM_VERS": "3.0",
        "COMMENT": "GENERATED VIA SPACE-TRACK.ORG API",
        "CREATION_DATE": "2025-05-04T02:26:54",
        "ORIGINATOR": "18 SPCS",
        "OBJECT_NAME": "BEIDOU 3G1",
        "OBJECT_ID": "2018-085A",
        "CENTER_NAME": "EARTH",
        "REF_FRAME": "TEME",
        "TIME_SYSTEM": "UTC",
        "MEAN_ELEMENT_THEORY": "SGP4",
        "EPOCH": "2025-05-03T20:10:29.096256",
        "MEAN_MOTION": "1.00269226",
        "ECCENTRICITY": "0.00042130",
        "INCLINATION": "2.9969",
        "RA_OF_ASC_NODE": "99.1813",
        "ARG_OF_PERICENTER": "10.3333",
        "MEAN_ANOMALY": "195.1403",
        "EPHEMERIS_TYPE": "0",
        "CLASSIFICATION_TYPE": "U",
        "NORAD_CAT_ID": "43683",
        "ELEMENT_SET_NO": "999",
        "REV_AT_EPOCH": "2395",
        "BSTAR": "0.00000000000000",
        "MEAN_MOTION_DOT": "-0.00000287",
        "MEAN_MOTION_DDOT": "0.0000000000000",
        "SEMIMAJOR_AXIS": "42165.449",
        "PERIOD": "1436.134",
        "APOAPSIS": "35805.079",
        "PERIAPSIS": "35769.550",
        "OBJECT_TYPE": "PAYLOAD",
        "RCS_SIZE": "LARGE",
        "COUNTRY_CODE": "PRC",
        "LAUNCH_DATE": "2018-11-01",
        "SITE": "XSC",
        "DECAY_DATE": null,
        "FILE": "4718307",
        "GP_ID": "286799737",
        "TLE_LINE0": "0 BEIDOU 3G1",
        "TLE_LINE1": "1 43683U 18085A   25123.84061454 -.00000287  00000-0  00000-0 0  9999",
        "TLE_LINE2": "2 43683   2.9969  99.1813 0004213  10.3333 195.1403  1.00269226 23955"
    }
]